[
  {
    "OBJECT_NAME": "STARLINK-6227",
    "OBJECT_ID": "23088N",
    "EPOCH": "2025-11-11T05:07:14.369664",
    "MEAN_MOTION": 15.02544109,
    "ECCENTRICITY": 0.0001478,
    "INCLINATION": 43.0052,
    "RA_OF_ASC_NODE": 31.5902,
    "ARG_OF_PERICENTER": 276.2243,
    "MEAN_ANOMALY": 83.843,
    "EPHEMERIS_TYPE": 0,
    "CLASSIFICATION_TYPE": "U",
    "NORAD_CAT_ID": 57060,
    "ELEMENT_SET_NO": 999,
    "REV_AT_EPOCH": 13254,
    "BSTAR": 0.00017444000000000002,
    "MEAN_MOTION_DOT": 2.154e-05,
    "MEAN_MOTION_DDOT": 0.0,
    "TLE_LINE1": "1 57060U 23088N   25315.21336076  .00002154  00000+0  17444-3 0  9997",
    "TLE_LINE2": "2 57060  43.0052  31.5902 0001478 276.2243  83.8430 15.02544109132542",
    "COMMENT": "Grouped by shell and plane from TLE"
  },
  {
    "OBJECT_NAME": "STARLINK-5869",
    "OBJECT_ID": "23088P",
    "EPOCH": "2025-11-11T05:35:50.711712",
    "MEAN_MOTION": 15.02539733,
    "ECCENTRICITY": 0.0001197,
    "INCLINATION": 43.0038,
    "RA_OF_ASC_NODE": 30.88,
    "ARG_OF_PERICENTER": 272.6522,
    "MEAN_ANOMALY": 87.4183,
    "EPHEMERIS_TYPE": 0,
    "CLASSIFICATION_TYPE": "U",
    "NORAD_CAT_ID": 57061,
    "ELEMENT_SET_NO": 999,
    "REV_AT_EPOCH": 13157,
    "BSTAR": 5.908600000000001e-05,
    "MEAN_MOTION_DOT": 5.95e-06,
    "MEAN_MOTION_DDOT": 0.0,
    "TLE_LINE1": "1 57061U 23088P   25315.23322583  .00000595  00000+0  59086-4 0  9994",
    "TLE_LINE2": "2 57061  43.0038  30.8800 0001197 272.6522  87.4183 15.02539733131578",
    "COMMENT": "Grouped by shell and plane from TLE"
  },
  {
    "OBJECT_NAME": "STARLINK-5832",
    "OBJECT_ID": "23088R",
    "EPOCH": "2025-11-10T13:28:59.036160",
    "MEAN_MOTION": 15.02545898,
    "ECCENTRICITY": 0.0001337,
    "INCLINATION": 43.005,
    "RA_OF_ASC_NODE": 34.4387,
    "ARG_OF_PERICENTER": 255.8573,
    "MEAN_ANOMALY": 104.2121,
    "EPHEMERIS_TYPE": 0,
    "CLASSIFICATION_TYPE": "U",
    "NORAD_CAT_ID": 57063,
    "ELEMENT_SET_NO": 999,
    "REV_AT_EPOCH": 13245,
    "BSTAR": 0.0,
    "MEAN_MOTION_DOT": -4.355e-05,
    "MEAN_MOTION_DDOT": 0.0,
    "TLE_LINE1": "1 57063U 23088R   25314.56179440 -.00004355  00000+0 -30742-3 0  9990",
    "TLE_LINE2": "2 57063  43.0050  34.4387 0001337 255.8573 104.2121 15.02545898132456",
    "COMMENT": "Grouped by shell and plane from TLE"
  },
  {
    "OBJECT_NAME": "STARLINK-5822",
    "OBJECT_ID": "23088S",
    "EPOCH": "2025-11-11T06:18:59.927904",
    "MEAN_MOTION": 15.02571467,
    "ECCENTRICITY": 0.0002263,
    "INCLINATION": 43.0052,
    "RA_OF_ASC_NODE": 31.1049,
    "ARG_OF_PERICENTER": 275.1669,
    "MEAN_ANOMALY": 84.8915,
    "EPHEMERIS_TYPE": 0,
    "CLASSIFICATION_TYPE": "U",
    "NORAD_CAT_ID": 57064,
    "ELEMENT_SET_NO": 999,
    "REV_AT_EPOCH": 13157,
    "BSTAR": 0.0,
    "MEAN_MOTION_DOT": -5.269e-05,
    "MEAN_MOTION_DDOT": 0.0,
    "TLE_LINE1": "1 57064U 23088S   25315.26319361 -.00005269  00000+0 -37485-3 0  9993",
    "TLE_LINE2": "2 57064  43.0052  31.1049 0002263 275.1669  84.8915 15.02571467131575",
    "COMMENT": "Grouped by shell and plane from TLE"
  },
  {
    "OBJECT_NAME": "STARLINK-5830",
    "OBJECT_ID": "23088T",
    "EPOCH": "2025-11-11T06:47:45.852576",
    "MEAN_MOTION": 15.02535143,
    "ECCENTRICITY": 0.0001034,
    "INCLINATION": 43.004,
    "RA_OF_ASC_NODE": 31.2421,
    "ARG_OF_PERICENTER": 264.1199,
    "MEAN_ANOMALY": 95.9526,
    "EPHEMERIS_TYPE": 0,
    "CLASSIFICATION_TYPE": "U",
    "NORAD_CAT_ID": 57065,
    "ELEMENT_SET_NO": 999,
    "REV_AT_EPOCH": 13157,
    "BSTAR": 6.9404e-05,
    "MEAN_MOTION_DOT": 7.34e-06,
    "MEAN_MOTION_DDOT": 0.0,
    "TLE_LINE1": "1 57065U 23088T   25315.28316959  .00000734  00000+0  69404-4 0  9993",
    "TLE_LINE2": "2 57065  43.0040  31.2421 0001034 264.1199  95.9526 15.02535143131571",
    "COMMENT": "Grouped by shell and plane from TLE"
  },
  {
    "OBJECT_NAME": "STARLINK-5827",
    "OBJECT_ID": "23088U",
    "EPOCH": "2025-11-11T05:31:02.319744",
    "MEAN_MOTION": 15.02546531,
    "ECCENTRICITY": 0.0001739,
    "INCLINATION": 43.0061,
    "RA_OF_ASC_NODE": 30.863,
    "ARG_OF_PERICENTER": 266.9658,
    "MEAN_ANOMALY": 93.0986,
    "EPHEMERIS_TYPE": 0,
    "CLASSIFICATION_TYPE": "U",
    "NORAD_CAT_ID": 57066,
    "ELEMENT_SET_NO": 999,
    "REV_AT_EPOCH": 13157,
    "BSTAR": 7.7972e-05,
    "MEAN_MOTION_DOT": 8.5e-06,
    "MEAN_MOTION_DDOT": 0.0,
    "TLE_LINE1": "1 57066U 23088U   25315.22988796  .00000850  00000+0  77972-4 0  9990",
    "TLE_LINE2": "2 57066  43.0061  30.8630 0001739 266.9658  93.0986 15.02546531131576",
    "COMMENT": "Grouped by shell and plane from TLE"
  },
  {
    "OBJECT_NAME": "STARLINK-5824",
    "OBJECT_ID": "23088V",
    "EPOCH": "2025-11-11T06:14:12.272064",
    "MEAN_MOTION": 15.02547349,
    "ECCENTRICITY": 0.0001463,
    "INCLINATION": 43.0028,
    "RA_OF_ASC_NODE": 31.0678,
    "ARG_OF_PERICENTER": 273.7847,
    "MEAN_ANOMALY": 86.2828,
    "EPHEMERIS_TYPE": 0,
    "CLASSIFICATION_TYPE": "U",
    "NORAD_CAT_ID": 57067,
    "ELEMENT_SET_NO": 999,
    "REV_AT_EPOCH": 13255,
    "BSTAR": 0.00027671,
    "MEAN_MOTION_DOT": 3.537e-05,
    "MEAN_MOTION_DDOT": 0.0,
    "TLE_LINE1": "1 57067U 23088V   25315.25986426  .00003537  00000+0  27671-3 0  9997",
    "TLE_LINE2": "2 57067  43.0028  31.0678 0001463 273.7847  86.2828 15.02547349132551",
    "COMMENT": "Grouped by shell and plane from TLE"
  },
  {
    "OBJECT_NAME": "STARLINK-5844",
    "OBJECT_ID": "23088W",
    "EPOCH": "2025-11-11T05:21:27.091008",
    "MEAN_MOTION": 15.02546539,
    "ECCENTRICITY": 0.0001279,
    "INCLINATION": 43.0042,
    "RA_OF_ASC_NODE": 30.8081,
    "ARG_OF_PERICENTER": 268.7831,
    "MEAN_ANOMALY": 91.2865,
    "EPHEMERIS_TYPE": 0,
    "CLASSIFICATION_TYPE": "U",
    "NORAD_CAT_ID": 57068,
    "ELEMENT_SET_NO": 999,
    "REV_AT_EPOCH": 13255,
    "BSTAR": 8.0934e-05,
    "MEAN_MOTION_DOT": 8.9e-06,
    "MEAN_MOTION_DDOT": 0.0,
    "TLE_LINE1": "1 57068U 23088W   25315.22323022  .00000890  00000+0  80934-4 0  9993",
    "TLE_LINE2": "2 57068  43.0042  30.8081 0001279 268.7831  91.2865 15.02546539132552",
    "COMMENT": "Grouped by shell and plane from TLE"
  },
  {
    "OBJECT_NAME": "STARLINK-5773",
    "OBJECT_ID": "23088AC",
    "EPOCH": "2025-11-11T06:52:23.963808",
    "MEAN_MOTION": 15.02534909,
    "ECCENTRICITY": 6.61e-05,
    "INCLINATION": 43.0052,
    "RA_OF_ASC_NODE": 30.4182,
    "ARG_OF_PERICENTER": 258.0228,
    "MEAN_ANOMALY": 102.054,
    "EPHEMERIS_TYPE": 0,
    "CLASSIFICATION_TYPE": "U",
    "NORAD_CAT_ID": 57074,
    "ELEMENT_SET_NO": 999,
    "REV_AT_EPOCH": 13256,
    "BSTAR": 0.00037135,
    "MEAN_MOTION_DOT": 4.816e-05,
    "MEAN_MOTION_DDOT": 0.0,
    "TLE_LINE1": "1 57074U 23088AC  25315.28638847  .00004816  00000+0  37135-3 0  9996",
    "TLE_LINE2": "2 57074  43.0052  30.4182 0000661 258.0228 102.0540 15.02534909132564",
    "COMMENT": "Grouped by shell and plane from TLE"
  },
  {
    "OBJECT_NAME": "STARLINK-30347",
    "OBJECT_ID": "23129B",
    "EPOCH": "2025-11-11T06:03:06.820128",
    "MEAN_MOTION": 15.02536312,
    "ECCENTRICITY": 0.000113,
    "INCLINATION": 43.0048,
    "RA_OF_ASC_NODE": 31.4644,
    "ARG_OF_PERICENTER": 267.8565,
    "MEAN_ANOMALY": 92.2148,
    "EPHEMERIS_TYPE": 0,
    "CLASSIFICATION_TYPE": "U",
    "NORAD_CAT_ID": 57699,
    "ELEMENT_SET_NO": 999,
    "REV_AT_EPOCH": 12298,
    "BSTAR": 0.0,
    "MEAN_MOTION_DOT": -3.283e-05,
    "MEAN_MOTION_DDOT": 0.0,
    "TLE_LINE1": "1 57699U 23129B   25315.25216227 -.00003283  00000+0 -22808-3 0  9996",
    "TLE_LINE2": "2 57699  43.0048  31.4644 0001130 267.8565  92.2148 15.02536312122989",
    "COMMENT": "Grouped by shell and plane from TLE"
  },
  {
    "OBJECT_NAME": "STARLINK-31026",
    "OBJECT_ID": "23191A",
    "EPOCH": "2025-11-11T06:12:30.544704",
    "MEAN_MOTION": 15.02536911,
    "ECCENTRICITY": 0.0001133,
    "INCLINATION": 43.0025,
    "RA_OF_ASC_NODE": 30.5797,
    "ARG_OF_PERICENTER": 280.3651,
    "MEAN_ANOMALY": 79.7064,
    "EPHEMERIS_TYPE": 0,
    "CLASSIFICATION_TYPE": "U",
    "NORAD_CAT_ID": 58508,
    "ELEMENT_SET_NO": 999,
    "REV_AT_EPOCH": 10761,
    "BSTAR": 7.973700000000001e-05,
    "MEAN_MOTION_DOT": 8.74e-06,
    "MEAN_MOTION_DDOT": 0.0,
    "TLE_LINE1": "1 58508U 23191A   25315.25868686  .00000874  00000+0  79737-4 0  9992",
    "TLE_LINE2": "2 58508  43.0025  30.5797 0001133 280.3651  79.7064 15.02536911107617",
    "COMMENT": "Grouped by shell and plane from TLE"
  },
  {
    "OBJECT_NAME": "STARLINK-31020",
    "OBJECT_ID": "23191B",
    "EPOCH": "2025-11-11T06:07:52.141440",
    "MEAN_MOTION": 15.02541913,
    "ECCENTRICITY": 0.0001783,
    "INCLINATION": 43.0036,
    "RA_OF_ASC_NODE": 31.4066,
    "ARG_OF_PERICENTER": 269.0969,
    "MEAN_ANOMALY": 90.9669,
    "EPHEMERIS_TYPE": 0,
    "CLASSIFICATION_TYPE": "U",
    "NORAD_CAT_ID": 58509,
    "ELEMENT_SET_NO": 999,
    "REV_AT_EPOCH": 10760,
    "BSTAR": 0.00027082,
    "MEAN_MOTION_DOT": 3.457e-05,
    "MEAN_MOTION_DDOT": 0.0,
    "TLE_LINE1": "1 58509U 23191B   25315.25546460  .00003457  00000+0  27082-3 0  9991",
    "TLE_LINE2": "2 58509  43.0036  31.4066 0001783 269.0969  90.9669 15.02541913107609",
    "COMMENT": "Grouped by shell and plane from TLE"
  }
]